{"type": "FeatureCollection", "features": [ {"type": "Feature", "properties": {"norad_id": 30242, "name": "FENGYUN 1C DEB", "group": "fengyun-1c-debris", "lat": 23.83234727306644, "lon": 13.202294600029248, "alt_km": 826.6780614506397, "timestamp": "2025-12-08T19:31:49.084404+00:00", "meta": {"OBJECT_NAME": "FENGYUN 1C DEB", "OBJECT_ID": "1999-025XB", "EPOCH": "2025-12-08T01:03:44.428608", "MEAN_MOTION": 14.17620858, "ECCENTRICITY": 0.00112584, "INCLINATION": 98.6836, "RA_OF_ASC_NODE": 16.3211, "ARG_OF_PERICENTER": 67.632, "MEAN_ANOMALY": 351.8033, "EPHEMERIS_TYPE": 0, "CLASSIFICATION_TYPE": "U", "NORAD_CAT_ID": 30242, "ELEMENT_SET_NO": 999, "REV_AT_EPOCH": 97360, "BSTAR": 0.00086530978, "MEAN_MOTION_DOT": 1.718e-05, "MEAN_MOTION_DDOT": 0}, "tle": {"line1": "1 30242U 99025XB  25342.04426422  .00001718  00000+0  86531-3 0  9998", "line2": "2 30242  98.6836  16.3211 0011258  67.6320 351.8033 14.17620858973608"}}, "geometry": {"type": "Point", "coordinates": [13.202294600029248, 23.83234727306644]}}, {"type": "Feature", "properties": {"norad_id": 30243, "name": "FENGYUN 1C DEB", "group": "fengyun-1c-debris", "lat": 6.5184767237885195, "lon": 175.348139154288, "alt_km": 844.3245553723154, "timestamp": "2025-12-08T19:31:49.084413+00:00", "meta": {"OBJECT_NAME": "FENGYUN 1C DEB", "OBJECT_ID": "1999-025XC", "EPOCH": "2025-12-08T06:54:39.038112", "MEAN_MOTION": 14.13012773, "ECCENTRICITY": 0.00129576, "INCLINATION": 98.6933, "RA_OF_ASC_NODE": 353.8359, "ARG_OF_PERICENTER": 131.0092, "MEAN_ANOMALY": 248.9569, "EPHEMERIS_TYPE": 0, "CLASSIFICATION_TYPE": "U", "NORAD_CAT_ID": 30243, "ELEMENT_SET_NO": 999, "REV_AT_EPOCH": 97216, "BSTAR": 0.00064886272, "MEAN_MOTION_DOT": 1.169e-05, "MEAN_MOTION_DDOT": 0}, "tle": {"line1": "1 30243U 99025XC  25342.28795183  .00001169  00000+0  64886-3 0  9997", "line2": "2 30243  98.6933 353.8359 0012957 131.0092 248.9569 14.13012773972165"}}, "geometry": {"type": "Point", "coordinates": [175.348139154288, 6.5184767237885195]}}, {"type": "Feature", "properties": {"norad_id": 30244, "name": "FENGYUN 1C DEB", "group": "fengyun-1c-debris", "lat": -19.96372822431805, "lon": -124.27773682584782, "alt_km": 840.5218213716198, "timestamp": "2025-12-08T19:31:49.084423+00:00", "meta": {"OBJECT_NAME": "FENGYUN 1C DEB", "OBJECT_ID": "1999-025XD", "EPOCH": "2025-12-08T03:24:53.267616", "MEAN_MOTION": 14.15004259, "ECCENTRICITY": 0.00097723, "INCLINATION": 99.1435, "RA_OF_ASC_NODE": 231.6806, "ARG_OF_PERICENTER": 328.3146, "MEAN_ANOMALY": 192.9063, "EPHEMERIS_TYPE": 0, "CLASSIFICATION_TYPE": "U", "NORAD_CAT_ID": 30244, "ELEMENT_SET_NO": 999, "REV_AT_EPOCH": 97281, "BSTAR": 0.0006067055, "MEAN_MOTION_DOT": 1.128e-05, "MEAN_MOTION_DDOT": 0}, "tle": {"line1": "1 30244U 99025XD  25342.14228319  .00001128  00000+0  60671-3 0  9998", "line2": "2 30244  99.1435 231.6806 0009772 328.3146 192.9063 14.15004259972812"}}, "geometry": {"type": "Point", "coordinates": [-124.27773682584782, -19.96372822431805]}}, {"type": "Feature", "properties": {"norad_id": 30245, "name": "FENGYUN 1C DEB", "group": "fengyun-1c-debris", "lat": -80.8945919277433, "lon": 73.12155559830911, "alt_km": 833.4527364984806, "timestamp": "2025-12-08T19:31:49.084432+00:00", "meta": {"OBJECT_NAME": "FENGYUN 1C DEB", "OBJECT_ID": "1999-025XE", "EPOCH": "2025-12-08T06:02:09.906720", "MEAN_MOTION": 13.79051265, "ECCENTRICITY": 0.01932635, "INCLINATION": 98.8888, "RA_OF_ASC_NODE": 330.1263, "ARG_OF_PERICENTER": 263.0944, "MEAN_ANOMALY": 94.819, "EPHEMERIS_TYPE": 0, "CLASSIFICATION_TYPE": "U", "NORAD_CAT_ID": 30245, "ELEMENT_SET_NO": 999, "REV_AT_EPOCH": 94632, "BSTAR": 0.0019313984, "MEAN_MOTION_DOT": 2.227e-05, "MEAN_MOTION_DDOT": 0}, "tle": {"line1": "1 30245U 99025XE  25342.25150355  .00002227  00000+0  19314-2 0  9993", "line2": "2 30245  98.8888 330.1263 0193263 263.0944  94.8190 13.79051265946329"}}, "geometry": {"type": "Point", "coordinates": [73.12155559830911, -80.8945919277433]}}, {"type": "Feature", "properties": {"norad_id": 30246, "name": "FENGYUN 1C DEB", "group": "fengyun-1c-debris", "lat": -61.233339742977286, "lon": -69.08139947746432, "alt_km": 1310.9382581205618, "timestamp": "2025-12-08T19:31:49.084441+00:00", "meta": {"OBJECT_NAME": "FENGYUN 1C DEB", "OBJECT_ID": "1999-025XF", "EPOCH": "2025-12-08T07:52:53.989824", "MEAN_MOTION": 13.37016073, "ECCENTRICITY": 0.03706843, "INCLINATION": 98.6729, "RA_OF_ASC_NODE": 126.6457, "ARG_OF_PERICENTER": 110.7732, "MEAN_ANOMALY": 313.52, "EPHEMERIS_TYPE": 0, "CLASSIFICATION_TYPE": "U", "NORAD_CAT_ID": 30246, "ELEMENT_SET_NO": 999, "REV_AT_EPOCH": 92081, "BSTAR": 0.00049685326, "MEAN_MOTION_DOT": 3.51e-06, "MEAN_MOTION_DDOT": 0}, "tle": {"line1": "1 30246U 99025XF  25342.32840266  .00000351  00000+0  49685-3 0  9990", "line2": "2 30246  98.6729 126.6457 0370684 110.7732 313.5200 13.37016073920813"}}, "geometry": {"type": "Point", "coordinates": [-69.08139947746432, -61.233339742977286]}}, {"type": "Feature", "properties": {"norad_id": 30247, "name": "FENGYUN 1C DEB", "group": "fengyun-1c-debris", "lat": 22.697493645462583, "lon": -113.51395330441602, "alt_km": 565.4227973154821, "timestamp": "2025-12-08T19:31:49.084450+00:00", "meta": {"OBJECT_NAME": "FENGYUN 1C DEB", "OBJECT_ID": "1999-025XG", "EPOCH": "2025-12-08T06:49:42.976416", "MEAN_MOTION": 14.58889402, "ECCENTRICITY": 0.0195142, "INCLINATION": 98.2764, "RA_OF_ASC_NODE": 249.4488, "ARG_OF_PERICENTER": 5.7984, "MEAN_ANOMALY": 118.6087, "EPHEMERIS_TYPE": 0, "CLASSIFICATION_TYPE": "U", "NORAD_CAT_ID": 30247, "ELEMENT_SET_NO": 999, "REV_AT_EPOCH": 97217, "BSTAR": 0.0041421503, "MEAN_MOTION_DOT": 0.00025323, "MEAN_MOTION_DDOT": 0}, "tle": {"line1": "1 30247U 99025XG  25342.28452519  .00025323  00000+0  41422-2 0  9992", "line2": "2 30247  98.2764 249.4488 0195142   5.7984 118.6087 14.58889402972174"}}, "geometry": {"type": "Point", "coordinates": [-113.51395330441602, 22.697493645462583]}}, {"type": "Feature", "properties": {"norad_id": 30248, "name": "FENGYUN 1C DEB", "group": "fengyun-1c-debris", "lat": 55.04397504410361, "lon": 153.30954675680567, "alt_km": 697.2369532812672, "timestamp": "2025-12-08T19:31:49.084459+00:00", "meta": {"OBJECT_NAME": "FENGYUN 1C DEB", "OBJECT_ID": "1999-025XH", "EPOCH": "2025-12-07T11:59:56.040288", "MEAN_MOTION": 14.58881413, "ECCENTRICITY": 0.00289202, "INCLINATION": 99.0977, "RA_OF_ASC_NODE": 165.1228, "ARG_OF_PERICENTER": 167.2428, "MEAN_ANOMALY": 192.9507, "EPHEMERIS_TYPE": 0, "CLASSIFICATION_TYPE": "U", "NORAD_CAT_ID": 30248, "ELEMENT_SET_NO": 999, "REV_AT_EPOCH": 97352, "BSTAR": 0.0063273602, "MEAN_MOTION_DOT": 0.00029876, "MEAN_MOTION_DDOT": 0}, "tle": {"line1": "1 30248U 99025XH  25341.49995417  .00029876  00000+0  63274-2 0  9990", "line2": "2 30248  99.0977 165.1228 0028920 167.2428 192.9507 14.58881413973528"}}, "geometry": {"type": "Point", "coordinates": [153.30954675680567, 55.04397504410361]}}, {"type": "Feature", "properties": {"norad_id": 30249, "name": "FENGYUN 1C DEB", "group": "fengyun-1c-debris", "lat": 33.9751626014105, "lon": -26.963312034772297, "alt_km": 699.4272722864353, "timestamp": "2025-12-08T19:31:49.084469+00:00", "meta": {"OBJECT_NAME": "FENGYUN 1C DEB", "OBJECT_ID": "1999-025XJ", "EPOCH": "2025-12-07T23:39:26.614080", "MEAN_MOTION": 14.57438974, "ECCENTRICITY": 0.0026329, "INCLINATION": 98.9596, "RA_OF_ASC_NODE": 146.0433, "ARG_OF_PERICENTER": 56.9913, "MEAN_ANOMALY": 66.0945, "EPHEMERIS_TYPE": 0, "CLASSIFICATION_TYPE": "U", "NORAD_CAT_ID": 30249, "ELEMENT_SET_NO": 999, "REV_AT_EPOCH": 97494, "BSTAR": 0.0043137413, "MEAN_MOTION_DOT": 0.00019673, "MEAN_MOTION_DDOT": 0}, "tle": {"line1": "1 30249U 99025XJ  25341.98572470  .00019673  00000+0  43137-2 0  9995", "line2": "2 30249  98.9596 146.0433 0026329  56.9913  66.0945 14.57438974974947"}}, "geometry": {"type": "Point", "coordinates": [-26.963312034772297, 33.9751626014105]}}, {"type": "Feature", "properties": {"norad_id": 30250, "name": "FENGYUN 1C DEB", "group": "fengyun-1c-debris", "lat": -64.25707136963257, "lon": -6.447004303724494, "alt_km": 870.0965431375798, "timestamp": "2025-12-08T19:31:49.084478+00:00", "meta": {"OBJECT_NAME": "FENGYUN 1C DEB", "OBJECT_ID": "1999-025XK", "EPOCH": "2025-12-08T06:12:49.836096", "MEAN_MOTION": 14.01617645, "ECCENTRICITY": 0.00684984, "INCLINATION": 98.7536, "RA_OF_ASC_NODE": 334.386, "ARG_OF_PERICENTER": 236.0731, "MEAN_ANOMALY": 139.4656, "EPHEMERIS_TYPE": 0, "CLASSIFICATION_TYPE": "U", "NORAD_CAT_ID": 30250, "ELEMENT_SET_NO": 999, "REV_AT_EPOCH": 96429, "BSTAR": 0.00070944286, "MEAN_MOTION_DOT": 1.054e-05, "MEAN_MOTION_DDOT": 0}, "tle": {"line1": "1 30250U 99025XK  25342.25891014  .00001054  00000+0  70944-3 0  9997", "line2": "2 30250  98.7536 334.3860 0068498 236.0731 139.4656 14.01617645964293"}}, "geometry": {"type": "Point", "coordinates": [-6.447004303724494, -64.25707136963257]}}, {"type": "Feature", "properties": {"norad_id": 30251, "name": "FENGYUN 1C DEB", "group": "fengyun-1c-debris", "lat": -31.696808976147263, "lon": -173.36845872733306, "alt_km": 763.899551091592, "timestamp": "2025-12-08T19:31:49.084488+00:00", "meta": {"OBJECT_NAME": "FENGYUN 1C DEB", "OBJECT_ID": "1999-025XL", "EPOCH": "2025-12-08T01:48:01.149120", "MEAN_MOTION": 14.29286, "ECCENTRICITY": 0.0051941, "INCLINATION": 99.0493, "RA_OF_ASC_NODE": 180.2169, "ARG_OF_PERICENTER": 343.7946, "MEAN_ANOMALY": 145.2598, "EPHEMERIS_TYPE": 0, "CLASSIFICATION_TYPE": "U", "NORAD_CAT_ID": 30251, "ELEMENT_SET_NO": 999, "REV_AT_EPOCH": 98075, "BSTAR": 0.00072575703, "MEAN_MOTION_DOT": 1.826e-05, "MEAN_MOTION_DDOT": 0}, "tle": {"line1": "1 30251U 99025XL  25342.07501330  .00001826  00000+0  72576-3 0  9997", "line2": "2 30251  99.0493 180.2169 0051941 343.7946 145.2598 14.29286000980755"}}, "geometry": {"type": "Point", "coordinates": [-173.36845872733306, -31.696808976147263]}}]}